OBJECT_NAME,OBJECT_ID,EPOCH,MEAN_MOTION,ECCENTRICITY,INCLINATION,RA_OF_ASC_NODE,ARG_OF_PERICENTER,MEAN_ANOMALY,EPHEMERIS_TYPE,CLASSIFICATION_TYPE,NORAD_CAT_ID,ELEMENT_SET_NO,REV_AT_EPOCH,BSTAR,MEAN_MOTION_DOT,MEAN_MOTION_DDOT
SKYSAT-C1,2016-040C,2026-06-27T19:59:00.069216,15.36476123,.00023925,96.9563,209.9760,36.3056,323.8351,0,U,41601,999,55950,.25672433E-3,.9064E-4,0
LAPAN-A3,2016-040E,2026-06-27T23:02:58.803648,15.33173418,.00095223,97.1486,174.7523,347.9140,12.1873,0,U,41603,999,55646,.11318463E-3,.3556E-4,0
GAOFEN-3,2016-049A,2026-06-27T23:25:54.261408,14.42216505,.00016296,98.4010,186.5992,97.5806,262.5569,0,U,41727,999,52020,-.7040593E-5,-.67E-6,0
SKYSAT-C4,2016-058B,2026-06-27T20:43:51.684960,15.48915944,.00021852,96.9172,200.1899,140.7582,219.3829,0,U,41771,999,54712,.30856233E-3,.16574E-3,0
SKYSAT-C5,2016-058C,2026-06-27T20:43:15.877344,15.34616706,.00013516,97.0467,219.0274,211.7802,148.3361,0,U,41772,999,54538,.22667269E-3,.7529E-4,0
SKYSAT-C2,2016-058D,2026-06-27T13:49:47.711424,15.42300534,.00037142,97.0164,200.2808,47.5284,312.6278,0,U,41773,999,54665,.26566838E-3,.11362E-3,0
SKYSAT-C3,2016-058E,2026-06-27T20:11:20.643360,15.52986869,.00013005,96.9005,209.2797,123.7186,236.4192,0,U,41774,999,54776,.3510598E-3,.21816E-3,0
ALSAT-1B,2016-059C,2026-06-27T23:28:51.301056,14.72281674,.00089497,97.7749,187.2762,182.2858,177.8311,0,U,41785,999,52216,.36612969E-4,.184E-5,0
PATHFINDER 1,2016-059E,2026-06-27T21:48:09.456192,14.67674498,.00286976,97.8166,177.7009,169.1672,191.0158,0,U,41787,999,52128,.10846553E-3,.574E-5,0
SCATSAT 1,2016-059H,2026-06-27T18:19:30.160992,14.79547579,.00539083,98.1188,242.6388,212.7511,147.0355,0,U,41790,999,10315,.16133388E-3,.118E-4,0
GOKTURK 1A,2016-073A,2026-06-27T23:38:36.096864,14.62782232,.00014227,98.1246,73.4904,78.7677,281.3684,0,U,41875,999,51040,.1003963E-3,.465E-5,0
RESOURCESAT-2A,2016-074A,2026-06-27T23:31:14.532384,14.21603562,.00031783,98.7531,252.3962,62.7891,297.3610,0,U,41877,999,49583,.98742815E-4,.172E-5,0
CARTOSAT-2D,2017-008A,2026-06-27T23:02:39.354144,15.19284966,.00048353,97.4112,238.0643,189.7139,170.4003,0,U,41948,999,51921,.16332158E-3,.3378E-4,0
SENTINEL-2B,2017-013A,2026-06-27T21:45:46.378656,14.30819140,.00012131,98.5696,253.5301,89.1776,270.9546,0,U,42063,999,48617,-.3326003E-5,-.52E-6,0
CARTOSAT-2E,2017-036C,2026-06-27T23:28:09.633792,15.19245259,.00023098,97.4278,238.6022,263.7157,96.3814,0,U,42767,999,49978,.19332883E-3,.4006E-4,0
FORMOSAT-5,2017-049A,2026-06-27T22:46:41.529792,14.50902435,.00123796,98.2253,254.0197,54.4016,305.8330,0,U,42920,999,46823,.48590042E-4,.148E-5,0
SENTINEL-5P,2017-064A,2026-06-27T20:17:10.544352,14.19520652,.00010308,98.7926,120.9008,90.8726,269.2568,0,U,42969,999,45107,.35363048E-4,.3E-6,0
SKYSAT-C11,2017-068A,2026-06-27T20:18:54.579456,15.58439616,.00004351,97.4354,328.1453,132.3961,227.7332,0,U,42987,999,48490,.35632565E-3,.27073E-3,0
SKYSAT-C10,2017-068B,2026-06-27T20:31:00.043104,15.34811841,.00012131,97.4512,315.8073,107.6955,252.4421,0,U,42988,999,48399,.27243556E-3,.9115E-4,0
SKYSAT-C9,2017-068C,2026-06-27T21:12:24.984000,15.41819413,.00095207,97.4434,316.8736,99.4995,260.7328,0,U,42989,999,48440,.30978827E-3,.13064E-3,0
SKYSAT-C8,2017-068D,2026-06-27T21:00:01.234656,15.37178342,.00013388,97.4529,315.6682,94.8861,265.2536,0,U,42990,999,48395,.28676266E-3,.10358E-3,0
SKYSAT-C7,2017-068E,2026-06-27T20:51:18.789408,15.37131386,.00069923,97.4540,316.6523,75.3410,284.8609,0,U,42991,999,48401,.29106199E-3,.10506E-3,0
SKYSAT-C6,2017-068F,2026-06-27T20:14:37.374432,15.34141837,.00051683,97.4576,316.5548,121.9336,238.2410,0,U,42992,999,48395,.28102448E-3,.921E-4,0
CARTOSAT-2F,2018-004A,2026-06-27T22:39:44.723232,15.19294412,.00018688,97.4793,238.4738,162.5800,197.5499,0,U,43111,999,46896,.16759705E-3,.3468E-4,0
GAOFEN-1 02,2018-031A,2026-06-27T22:31:37.436736,14.76423042,.00028134,98.0529,241.4354,3.9685,356.1546,0,U,43259,999,44428,.14002951E-3,.922E-5,0
GAOFEN-1 03,2018-031B,2026-06-27T23:37:34.023648,14.76439536,.00035746,98.0514,241.3385,57.5996,302.5559,0,U,43260,999,44428,.26443379E-4,.132E-5,0
GAOFEN-1 04,2018-031D,2026-06-27T23:02:43.235232,14.76449183,.00019939,98.0530,241.5063,64.9105,295.2312,0,U,43262,999,44427,.12512907E-3,.819E-5,0
SENTINEL-3B,2018-039A,2026-06-27T22:04:12.073152,14.26737598,.00007684,98.6246,246.2978,109.6830,250.4433,0,U,43437,999,42565,.59665854E-4,.101E-5,0
GAOFEN-5 01,2018-043A,2026-06-27T21:15:08.410464,14.60612649,.000286,98.4576,150.6967,64.2719,295.8776,0,U,43461,999,43325,.79971573E-4,.34E-5,0
GAOFEN-6,2018-048A,2026-06-27T23:33:45.747936,14.76373017,.00116596,98.0896,241.6432,130.2274,229.9957,0,U,43484,999,43498,.35233335E-4,.192E-5,0
