SKYSAT-C1               
1 41601U 16040C   26178.83263969  .00009064  00000+0  25672-3 0  9996
2 41601  96.9563 209.9760 0002392  36.3056 323.8351 15.36476123559501
LAPAN-A3                
1 41603U 16040E   26178.96040282  .00003556  00000+0  11318-3 0  9995
2 41603  97.1486 174.7523 0009522 347.9140  12.1873 15.33173418556460
GAOFEN-3                
1 41727U 16049A   26178.97632247 -.00000067  00000+0 -70406-5 0  9991
2 41727  98.4010 186.5992 0001629  97.5806 262.5569 14.42216505520202
SKYSAT-C4               
1 41771U 16058B   26178.86379265  .00016574  00000+0  30856-3 0  9997
2 41771  96.9172 200.1899 0002185 140.7582 219.3829 15.48915944547121
SKYSAT-C5               
1 41772U 16058C   26178.86337821  .00007529  00000+0  22667-3 0  9991
2 41772  97.0467 219.0274 0001351 211.7802 148.3361 15.34616706545382
SKYSAT-C2               
1 41773U 16058D   26178.57624666  .00011362  00000+0  26567-3 0  9999
2 41773  97.0164 200.2808 0003714  47.5284 312.6278 15.42300534546658
SKYSAT-C3               
1 41774U 16058E   26178.84121115  .00021816  00000+0  35106-3 0  9995
2 41774  96.9005 209.2797 0001300 123.7186 236.4192 15.52986869547767
ALSAT-1B                
1 41785U 16059C   26178.97837154  .00000184  00000+0  36613-4 0  9999
2 41785  97.7749 187.2762 0008949 182.2858 177.8311 14.72281674522163
PATHFINDER 1            
1 41787U 16059E   26178.90844278  .00000574  00000+0  10847-3 0  9992
2 41787  97.8166 177.7009 0028697 169.1672 191.0158 14.67674498521280
SCATSAT 1               
1 41790U 16059H   26178.76354353  .00001180  00000+0  16133-3 0  9998
2 41790  98.1188 242.6388 0053908 212.7511 147.0355 14.79547579103158
GOKTURK 1A              
1 41875U 16073A   26178.98514001  .00000465  00000+0  10040-3 0  9996
2 41875  98.1246  73.4904 0001422  78.7677 281.3684 14.62782232510404
RESOURCESAT-2A          
1 41877U 16074A   26178.98002931  .00000172  00000+0  98743-4 0  9995
2 41877  98.7531 252.3962 0003178  62.7891 297.3610 14.21603562495830
CARTOSAT-2D             
1 41948U 17008A   26178.96017771  .00003378  00000+0  16332-3 0  9992
2 41948  97.4112 238.0643 0004835 189.7139 170.4003 15.19284966519210
SENTINEL-2B             
1 42063U 17013A   26178.90678679 -.00000052  00000+0 -33260-5 0  9990
2 42063  98.5696 253.5301 0001213  89.1776 270.9546 14.30819140486174
CARTOSAT-2E             
1 42767U 17036C   26178.97788928  .00004006  00000+0  19333-3 0  9996
2 42767  97.4278 238.6022 0002309 263.7157  96.3814 15.19245259499784
FORMOSAT-5              
1 42920U 17049A   26178.94909178  .00000148  00000+0  48590-4 0  9991
2 42920  98.2253 254.0197 0012379  54.4016 305.8330 14.50902435468236
SENTINEL-5P             
1 42969U 17064A   26178.84526093  .00000030  00000+0  35363-4 0  9995
2 42969  98.7926 120.9008 0001030  90.8726 269.2568 14.19520652451079
SKYSAT-C11              
1 42987U 17068A   26178.84646504  .00027073  00000+0  35633-3 0  9994
2 42987  97.4354 328.1453 0000435 132.3961 227.7332 15.58439616484906
SKYSAT-C10              
1 42988U 17068B   26178.85486161  .00009115  00000+0  27244-3 0  9993
2 42988  97.4512 315.8073 0001213 107.6955 252.4421 15.34811841483997
SKYSAT-C9               
1 42989U 17068C   26178.88362250  .00013064  00000+0  30979-3 0  9996
2 42989  97.4434 316.8736 0009520  99.4995 260.7328 15.41819413484405
SKYSAT-C8               
1 42990U 17068D   26178.87501429  .00010358  00000+0  28676-3 0  9994
2 42990  97.4529 315.6682 0001338  94.8861 265.2536 15.37178342483953
SKYSAT-C7               
1 42991U 17068E   26178.86896747  .00010506  00000+0  29106-3 0  9998
2 42991  97.4540 316.6523 0006992  75.3410 284.8609 15.37131386484010
SKYSAT-C6               
1 42992U 17068F   26178.84348813  .00009210  00000+0  28102-3 0  9998
2 42992  97.4576 316.5548 0005168 121.9336 238.2410 15.34141837483959
CARTOSAT-2F             
1 43111U 18004A   26178.94426763  .00003468  00000+0  16760-3 0  9991
2 43111  97.4793 238.4738 0001868 162.5800 197.5499 15.19294412468966
GAOFEN-1 02             
1 43259U 18031A   26178.93862774  .00000922  00000+0  14003-3 0  9999
2 43259  98.0529 241.4354 0002813   3.9685 356.1546 14.76423042444281
GAOFEN-1 03             
1 43260U 18031B   26178.98442157  .00000132  00000+0  26443-4 0  9990
2 43260  98.0514 241.3385 0003574  57.5996 302.5559 14.76439536444289
GAOFEN-1 04             
1 43262U 18031D   26178.96022263  .00000819  00000+0  12513-3 0  9996
2 43262  98.0530 241.5063 0001993  64.9105 295.2312 14.76449183444274
SENTINEL-3B             
1 43437U 18039A   26178.91958418  .00000101  00000+0  59666-4 0  9998
2 43437  98.6246 246.2978 0000768 109.6830 250.4433 14.26737598425659
GAOFEN-5 01             
1 43461U 18043A   26178.88551401  .00000340  00000+0  79972-4 0  9994
2 43461  98.4576 150.6967 0002860  64.2719 295.8776 14.60612649433258
GAOFEN-6                
1 43484U 18048A   26178.98177949  .00000192  00000+0  35233-4 0  9993
2 43484  98.0896 241.6432 0011659 130.2274 229.9957 14.76373017434988
